FLOCK 4G-24             
1 62637U 25009AE  26068.72509072  .00010513  00000+0  38996-3 0  9991
2 62637  97.4061 151.5140 0001802 280.2808  79.8228 15.27784978 63732
STARLINK-32956          
1 63570U 25076B   26068.42540277  .00029986  00000+0  10954-2 0  9998
2 63570  42.9961 326.4034 0000862  33.0326 327.0579 15.27560542 51746
